BEIDOU-3 G1             
1 43683U 18085A   26066.44836589 -.00000280  00000+0  00000+0 0  9992
2 43683   2.8182 100.2970 0001615  13.9526 352.3140  1.00267773 27049
COSMOS 2529 [GLONASS-M] 
1 43687U 18086A   26058.37448306  .00000008  00000+0  00000+0 0  9993
2 43687  64.2955 196.2992 0007959 253.0448 106.8346  2.13101880 56941
BEIDOU-3 M17            
1 43706U 18093A   26066.28239240  .00000017  00000+0  00000+0 0  9997
2 43706  54.1710 185.7532 0007135 296.7354  59.0219  1.86228475 49634
BEIDOU-3 M18            
1 43707U 18093B   26065.61398671  .00000015  00000+0  00000+0 0  9996
2 43707  54.1721 185.7677 0006020 341.1146  18.8397  1.86226588 49625
NAVSTAR 77 (USA 289)    
1 43873U 18109A   26065.54477595 -.00000004  00000+0  00000+0 0  9992
2 43873  55.6164  96.2348 0037951 198.3878 333.9441  2.00556975 53010
BEIDOU-3 IGSO-1         
1 44204U 19023A   26066.31827644 -.00000205  00000+0  00000+0 0  9990
2 44204  58.5580  38.6956 0025959 236.3216 123.7068  1.00270320  6195
BEIDOU-2 G8             
1 44231U 19027A   26066.40322377 -.00000249  00000+0  00000+0 0  9995
2 44231   1.4004  74.2594 0011606 272.0527 108.3854  1.00275598 25064
COSMOS 2534 [GLONASS-M] 
1 44299U 19030A   26063.82267120  .00000008  00000+0  00000+0 0  9992
2 44299  64.3687 196.1275 0009607 279.9650  74.0554  2.13102294 52696
BEIDOU-3 IGSO-2         
1 44337U 19035A   26057.68879618 -.00000176  00000+0  00000+0 0  9995
2 44337  55.2338 159.8353 0038734 206.4752 153.7223  1.00247364 24561
NAVSTAR 78 (USA 293)    
1 44506U 19056A   26065.18297285 -.00000100  00000+0  00000+0 0  9991
2 44506  55.6839 335.2387 0058046 198.0933 333.3685  2.00568454 48001
BEIDOU-3 M24            
1 44542U 19061A   26065.14698275  .00000012  00000+0  00000+0 0  9998
2 44542  54.3990 186.2022 0008590  20.7979 339.2100  1.86228900 43874
BEIDOU-3 M23            
1 44543U 19061B   26066.34628199  .00000017  00000+0  00000+0 0  9995
2 44543  54.3975 186.1302 0005055  13.3914 342.9182  1.86227456 43896
EUTELSAT 5 WEST B       
1 44624U 19067A   26066.29366299 -.00000044  00000+0  00000+0 0  9996
2 44624   0.0897 313.6187 0003222  44.5352 267.5427  1.00273225 23412
BEIDOU-3 IGSO-3         
1 44709U 19073A   26063.99963149 -.00000162  00000+0  00000+0 0  9999
2 44709  54.9773 282.0232 0040551 188.9231 171.0493  1.00269134 23418
BEIDOU-3 M22            
1 44793U 19078A   26066.06018572 -.00000065  00000+0  00000+0 0  9991
2 44793  54.0280 303.4217 0007398  37.4223 322.6804  1.86232046 42740
BEIDOU-3 M21            
1 44794U 19078B   26066.19978304 -.00000065  00000+0  00000+0 0  9994
2 44794  54.0014 303.3801 0005318  31.7457 328.3372  1.86227693 42756
COSMOS 2544 [GLONASS-M] 
1 44850U 19088A   26065.26106608  .00000003  00000+0  00000+0 0  9996
2 44850  65.5071  77.1646 0015779 259.7620 100.0954  2.13101873 48522
